[{"OBJECT_NAME":"HADES-ICM","OBJECT_ID":"2025-052BN","EPOCH":"2026-03-09T16:44:43.821024","MEAN_MOTION":15.5687434,"ECCENTRICITY":0.00089133,"INCLINATION":97.3947,"RA_OF_ASC_NODE":329.1452,"ARG_OF_PERICENTER":110.6367,"MEAN_ANOMALY":249.5845,"EPHEMERIS_TYPE":0,"CLASSIFICATION_TYPE":"U","NORAD_CAT_ID":63492,"ELEMENT_SET_NO":999,"REV_AT_EPOCH":5514,"BSTAR":0.0018517486,"MEAN_MOTION_DOT":0.00135148,"MEAN_MOTION_DDOT":0},{"OBJECT_NAME":"SL-8 R\/B","OBJECT_ID":"1971-119B","EPOCH":"2026-03-09T17:26:54.866688","MEAN_MOTION":14.37860327,"ECCENTRICITY":0.05486467,"INCLINATION":73.8873,"RA_OF_ASC_NODE":175.649,"ARG_OF_PERICENTER":142.2751,"MEAN_ANOMALY":221.8237,"EPHEMERIS_TYPE":0,"CLASSIFICATION_TYPE":"U","NORAD_CAT_ID":5730,"ELEMENT_SET_NO":999,"REV_AT_EPOCH":65549,"BSTAR":0.00068082483,"MEAN_MOTION_DOT":0.00013069,"MEAN_MOTION_DDOT":0}]
